[{"OBJECT_NAME":"STARLINK-5787","OBJECT_ID":"2023-042U","EPOCH":"2026-03-09T00:30:06.566112","MEAN_MOTION":15.02528532,"ECCENTRICITY":0.00014679,"INCLINATION":43.0055,"RA_OF_ASC_NODE":59.4097,"ARG_OF_PERICENTER":270.8583,"MEAN_ANOMALY":89.2091,"EPHEMERIS_TYPE":0,"CLASSIFICATION_TYPE":"U","NORAD_CAT_ID":56004,"ELEMENT_SET_NO":999,"REV_AT_EPOCH":16281,"BSTAR":-4.8640846e-5,"MEAN_MOTION_DOT":-8.61e-6,"MEAN_MOTION_DDOT":0},{"OBJECT_NAME":"OBJECT E","OBJECT_ID":"2025-292E","EPOCH":"2026-03-09T23:06:13.350528","MEAN_MOTION":15.05603019,"ECCENTRICITY":0.00142209,"INCLINATION":97.6388,"RA_OF_ASC_NODE":145.6972,"ARG_OF_PERICENTER":344.4497,"MEAN_ANOMALY":15.6291,"EPHEMERIS_TYPE":0,"CLASSIFICATION_TYPE":"U","NORAD_CAT_ID":66997,"ELEMENT_SET_NO":999,"REV_AT_EPOCH":1350,"BSTAR":0.00040225725,"MEAN_MOTION_DOT":5.752e-5,"MEAN_MOTION_DDOT":0}]
